APSTAR-6D               
1 45863U 20045A   26085.86793840 -.00000335  00000+0  00000+0 0  9993
2 45863   0.0494  96.8323 0002382 347.5742 186.3728  1.00269587 21032
